{"type": "FeatureCollection", "features": [ {"type": "Feature", "properties": {"norad_id": 30320, "name": "FENGYUN 1C DEB", "group": "fengyun-1c-debris", "lat": 74.06398600570171, "lon": 14.724309844674112, "alt_km": 945.8377463437728, "timestamp": "2025-12-15T22:44:29.203412+00:00", "meta": {"OBJECT_NAME": "FENGYUN 1C DEB", "OBJECT_ID": "1999-025AAH", "EPOCH": "2025-12-15T03:36:42.174432", "MEAN_MOTION": 13.98555949, "ECCENTRICITY": 0.00850911, "INCLINATION": 99.1875, "RA_OF_ASC_NODE": 48.4532, "ARG_OF_PERICENTER": 287.9163, "MEAN_ANOMALY": 97.6458, "EPHEMERIS_TYPE": 0, "CLASSIFICATION_TYPE": "U", "NORAD_CAT_ID": 30320, "ELEMENT_SET_NO": 999, "REV_AT_EPOCH": 96441, "BSTAR": 0.00011319452, "MEAN_MOTION_DOT": 1.21e-06, "MEAN_MOTION_DDOT": 0}, "tle": {"line1": "1 30320U 99025AAH 25349.15048813  .00000121  00000+0  11319-3 0  9997", "line2": "2 30320  99.1875  48.4532 0085091 287.9163  97.6458 13.98555949964415"}}, "geometry": {"type": "Point", "coordinates": [14.724309844674112, 74.06398600570171]}}, {"type": "Feature", "properties": {"norad_id": 30321, "name": "FENGYUN 1C DEB", "group": "fengyun-1c-debris", "lat": -21.69742834139403, "lon": -7.6283448785956285, "alt_km": 857.0499251508263, "timestamp": "2025-12-15T22:44:29.203422+00:00", "meta": {"OBJECT_NAME": "FENGYUN 1C DEB", "OBJECT_ID": "1999-025AAJ", "EPOCH": "2025-12-15T05:56:51.446688", "MEAN_MOTION": 14.16643863, "ECCENTRICITY": 0.0060024, "INCLINATION": 98.6563, "RA_OF_ASC_NODE": 348.2159, "ARG_OF_PERICENTER": 229.4819, "MEAN_ANOMALY": 141.4028, "EPHEMERIS_TYPE": 0, "CLASSIFICATION_TYPE": "U", "NORAD_CAT_ID": 30321, "ELEMENT_SET_NO": 999, "REV_AT_EPOCH": 97579, "BSTAR": 0.00033425074, "MEAN_MOTION_DOT": 6.36e-06, "MEAN_MOTION_DDOT": 0}, "tle": {"line1": "1 30321U 99025AAJ 25349.24781767  .00000636  00000+0  33425-3 0  9993", "line2": "2 30321  98.6563 348.2159 0060024 229.4819 141.4028 14.16643863975796"}}, "geometry": {"type": "Point", "coordinates": [-7.6283448785956285, -21.69742834139403]}}, {"type": "Feature", "properties": {"norad_id": 30322, "name": "FENGYUN 1C DEB", "group": "fengyun-1c-debris", "lat": -46.3188823887905, "lon": 18.508290263483623, "alt_km": 791.5111664677797, "timestamp": "2025-12-15T22:44:29.203432+00:00", "meta": {"OBJECT_NAME": "FENGYUN 1C DEB", "OBJECT_ID": "1999-025AAK", "EPOCH": "2025-12-15T01:09:49.633632", "MEAN_MOTION": 14.06108314, "ECCENTRICITY": 0.012671, "INCLINATION": 98.3983, "RA_OF_ASC_NODE": 206.573, "ARG_OF_PERICENTER": 246.5391, "MEAN_ANOMALY": 112.2417, "EPHEMERIS_TYPE": 0, "CLASSIFICATION_TYPE": "U", "NORAD_CAT_ID": 30322, "ELEMENT_SET_NO": 999, "REV_AT_EPOCH": 96232, "BSTAR": 0.0011325253, "MEAN_MOTION_DOT": 1.96e-05, "MEAN_MOTION_DDOT": 0}, "tle": {"line1": "1 30322U 99025AAK 25349.04849113  .00001960  00000+0  11325-2 0  9997", "line2": "2 30322  98.3983 206.5730 0126710 246.5391 112.2417 14.06108314962320"}}, "geometry": {"type": "Point", "coordinates": [18.508290263483623, -46.3188823887905]}}, {"type": "Feature", "properties": {"norad_id": 30325, "name": "FENGYUN 1C DEB", "group": "fengyun-1c-debris", "lat": -66.44879268035895, "lon": 29.84795604400932, "alt_km": 862.2665384859747, "timestamp": "2025-12-15T22:44:29.203443+00:00", "meta": {"OBJECT_NAME": "FENGYUN 1C DEB", "OBJECT_ID": "1999-025AAL", "EPOCH": "2025-12-15T00:54:34.840800", "MEAN_MOTION": 14.09105103, "ECCENTRICITY": 0.00152959, "INCLINATION": 98.7329, "RA_OF_ASC_NODE": 8.3177, "ARG_OF_PERICENTER": 246.2636, "MEAN_ANOMALY": 113.693, "EPHEMERIS_TYPE": 0, "CLASSIFICATION_TYPE": "U", "NORAD_CAT_ID": 30325, "ELEMENT_SET_NO": 999, "REV_AT_EPOCH": 97048, "BSTAR": 8.6011351e-05, "MEAN_MOTION_DOT": 1.07e-06, "MEAN_MOTION_DDOT": 0}, "tle": {"line1": "1 30325U 99025AAL 25349.03790325  .00000107  00000+0  86011-4 0  9997", "line2": "2 30325  98.7329   8.3177 0015295 246.2636 113.6930 14.09105103970485"}}, "geometry": {"type": "Point", "coordinates": [29.84795604400932, -66.44879268035895]}}, {"type": "Feature", "properties": {"norad_id": 30326, "name": "FENGYUN 1C DEB", "group": "fengyun-1c-debris", "lat": -56.71700960799826, "lon": -109.56427495530698, "alt_km": 931.1804469931931, "timestamp": "2025-12-15T22:44:29.203453+00:00", "meta": {"OBJECT_NAME": "FENGYUN 1C DEB", "OBJECT_ID": "1999-025AAM", "EPOCH": "2025-12-15T03:56:59.517600", "MEAN_MOTION": 13.85476323, "ECCENTRICITY": 0.01422935, "INCLINATION": 98.6541, "RA_OF_ASC_NODE": 236.2978, "ARG_OF_PERICENTER": 23.9903, "MEAN_ANOMALY": 336.7799, "EPHEMERIS_TYPE": 0, "CLASSIFICATION_TYPE": "U", "NORAD_CAT_ID": 30326, "ELEMENT_SET_NO": 999, "REV_AT_EPOCH": 95489, "BSTAR": 0.0002094418, "MEAN_MOTION_DOT": 2.19e-06, "MEAN_MOTION_DDOT": 0}, "tle": {"line1": "1 30326U 99025AAM 25349.16457775  .00000219  00000+0  20944-3 0  9997", "line2": "2 30326  98.6541 236.2978 0142293  23.9903 336.7799 13.85476323954894"}}, "geometry": {"type": "Point", "coordinates": [-109.56427495530698, -56.71700960799826]}}, {"type": "Feature", "properties": {"norad_id": 30327, "name": "FENGYUN 1C DEB", "group": "fengyun-1c-debris", "lat": -11.476345083563748, "lon": 62.373348103339374, "alt_km": 790.8476459418489, "timestamp": "2025-12-15T22:44:29.203463+00:00", "meta": {"OBJECT_NAME": "FENGYUN 1C DEB", "OBJECT_ID": "1999-025AAN", "EPOCH": "2025-12-13T15:48:01.550592", "MEAN_MOTION": 14.17992989, "ECCENTRICITY": 0.01170502, "INCLINATION": 98.4436, "RA_OF_ASC_NODE": 241.9237, "ARG_OF_PERICENTER": 140.1805, "MEAN_ANOMALY": 250.821, "EPHEMERIS_TYPE": 0, "CLASSIFICATION_TYPE": "U", "NORAD_CAT_ID": 30327, "ELEMENT_SET_NO": 999, "REV_AT_EPOCH": 96456, "BSTAR": 0.0019863903, "MEAN_MOTION_DOT": 4.314e-05, "MEAN_MOTION_DDOT": 0}, "tle": {"line1": "1 30327U 99025AAN 25347.65835128  .00004314  00000+0  19864-2 0  9990", "line2": "2 30327  98.4436 241.9237 0117050 140.1805 250.8210 14.17992989964569"}}, "geometry": {"type": "Point", "coordinates": [62.373348103339374, -11.476345083563748]}}, {"type": "Feature", "properties": {"norad_id": 30328, "name": "FENGYUN 1C DEB", "group": "fengyun-1c-debris", "lat": -75.14773083631579, "lon": 35.17325300385692, "alt_km": 861.3754562999629, "timestamp": "2025-12-15T22:44:29.203473+00:00", "meta": {"OBJECT_NAME": "FENGYUN 1C DEB", "OBJECT_ID": "1999-025AAP", "EPOCH": "2025-12-15T06:23:49.170912", "MEAN_MOTION": 14.12474966, "ECCENTRICITY": 0.00058819, "INCLINATION": 98.6864, "RA_OF_ASC_NODE": 359.3098, "ARG_OF_PERICENTER": 145.9514, "MEAN_ANOMALY": 275.1392, "EPHEMERIS_TYPE": 0, "CLASSIFICATION_TYPE": "U", "NORAD_CAT_ID": 30328, "ELEMENT_SET_NO": 999, "REV_AT_EPOCH": 97300, "BSTAR": 0.00015561816, "MEAN_MOTION_DOT": 2.45e-06, "MEAN_MOTION_DDOT": 0}, "tle": {"line1": "1 30328U 99025AAP 25349.26654133  .00000245  00000+0  15562-3 0  9996", "line2": "2 30328  98.6864 359.3098 0005881 145.9514 275.1392 14.12474966973009"}}, "geometry": {"type": "Point", "coordinates": [35.17325300385692, -75.14773083631579]}}, {"type": "Feature", "properties": {"norad_id": 30329, "name": "FENGYUN 1C DEB", "group": "fengyun-1c-debris", "lat": 37.99311230446486, "lon": -98.03306684886564, "alt_km": 835.119283098461, "timestamp": "2025-12-15T22:44:29.203483+00:00", "meta": {"OBJECT_NAME": "FENGYUN 1C DEB", "OBJECT_ID": "1999-025AAQ", "EPOCH": "2025-12-14T17:24:09.927360", "MEAN_MOTION": 13.86743659, "ECCENTRICITY": 0.01423023, "INCLINATION": 99.2619, "RA_OF_ASC_NODE": 268.0791, "ARG_OF_PERICENTER": 30.2301, "MEAN_ANOMALY": 28.603, "EPHEMERIS_TYPE": 0, "CLASSIFICATION_TYPE": "U", "NORAD_CAT_ID": 30329, "ELEMENT_SET_NO": 999, "REV_AT_EPOCH": 95438, "BSTAR": 0.00051780416, "MEAN_MOTION_DOT": 6.09e-06, "MEAN_MOTION_DDOT": 0}, "tle": {"line1": "1 30329U 99025AAQ 25348.72511490  .00000609  00000+0  51780-3 0  9991", "line2": "2 30329  99.2619 268.0791 0142302  30.2301  28.6030 13.86743659954389"}}, "geometry": {"type": "Point", "coordinates": [-98.03306684886564, 37.99311230446486]}}, {"type": "Feature", "properties": {"norad_id": 30330, "name": "FENGYUN 1C DEB", "group": "fengyun-1c-debris", "lat": 18.212630585313022, "lon": -20.829594514704578, "alt_km": 1083.6438233439776, "timestamp": "2025-12-15T22:44:29.203494+00:00", "meta": {"OBJECT_NAME": "FENGYUN 1C DEB", "OBJECT_ID": "1999-025AAR", "EPOCH": "2025-12-15T05:20:34.675584", "MEAN_MOTION": 13.82067004, "ECCENTRICITY": 0.01876223, "INCLINATION": 98.8861, "RA_OF_ASC_NODE": 341.4373, "ARG_OF_PERICENTER": 178.084, "MEAN_ANOMALY": 196.3626, "EPHEMERIS_TYPE": 0, "CLASSIFICATION_TYPE": "U", "NORAD_CAT_ID": 30330, "ELEMENT_SET_NO": 999, "REV_AT_EPOCH": 94692, "BSTAR": 0.0011363342, "MEAN_MOTION_DOT": 1.357e-05, "MEAN_MOTION_DDOT": 0}, "tle": {"line1": "1 30330U 99025AAR 25349.22262356  .00001357  00000+0  11363-2 0  9996", "line2": "2 30330  98.8861 341.4373 0187622 178.0840 196.3626 13.82067004946924"}}, "geometry": {"type": "Point", "coordinates": [-20.829594514704578, 18.212630585313022]}}, {"type": "Feature", "properties": {"norad_id": 30331, "name": "FENGYUN 1C DEB", "group": "fengyun-1c-debris", "lat": 69.78538551960345, "lon": -0.913542715412443, "alt_km": 873.0622892240608, "timestamp": "2025-12-15T22:44:29.203531+00:00", "meta": {"OBJECT_NAME": "FENGYUN 1C DEB", "OBJECT_ID": "1999-025AAS", "EPOCH": "2025-12-15T01:54:55.800000", "MEAN_MOTION": 13.97831965, "ECCENTRICITY": 0.0096236, "INCLINATION": 98.9564, "RA_OF_ASC_NODE": 23.5989, "ARG_OF_PERICENTER": 1.5238, "MEAN_ANOMALY": 24.9789, "EPHEMERIS_TYPE": 0, "CLASSIFICATION_TYPE": "U", "NORAD_CAT_ID": 30331, "ELEMENT_SET_NO": 999, "REV_AT_EPOCH": 96152, "BSTAR": 0.00038226443, "MEAN_MOTION_DOT": 5.19e-06, "MEAN_MOTION_DDOT": 0}, "tle": {"line1": "1 30331U 99025AAS 25349.07981250  .00000519  00000+0  38226-3 0  9998", "line2": "2 30331  98.9564  23.5989 0096236   1.5238  24.9789 13.97831965961528"}}, "geometry": {"type": "Point", "coordinates": [-0.913542715412443, 69.78538551960345]}}]}